#dP2018  3 31  0  0  0.00000000      96 __u+U IGS08 FIT  IAC
## 1994 518400.00000000   900.00000000 58208 0.0000000000000
+   87   C01C02C03C04C05C06C07C08C09C10C11C12C13C14E01E02E03
+        E04E05E07E08E09E11E12E14E18E19E24E26E30G01G02G03G04
+        G05G06G07G08G09G10G11G12G13G14G15G16G17G18G19G20G21
+        G22G23G24G25G26G27G28G29G30G31G32J03R01R02R03R04R05
+        R06R07R08R09R10R11R13R14R15R16R17R18R19R20R21R22R23
+        R24R26  0  0  0  0  0  0  0  0  0  0  0  0  0  0  0
++        12 11 13 16 12 10  8  9  8  8  7  7  8  7  7  7  7
++         7  7  7  7  7  7  7  7  7  7  7  7  7  3  3  3  4
++         3  3  3  3  3  3  3  3  3  3  3  3  3  3  3  3  3
++         3  3  3  3  6  3  3  3  3  3  3 12  5  5  5  5  5
++         5  5  5  5  5  5  5  5  5  5  5  5  5  5  5  5  5
++         6  8  0  0  0  0  0  0  0  0  0  0  0  0  0  0  0
%c M  cc GPS ccc cccc cccc cccc cccc ccccc ccccc ccccc ccccc
%c cc cc ccc ccc cccc cccc cccc cccc ccccc ccccc ccccc ccccc
%f  1.2500000  1.025000000  0.00000000000  0.000000000000000
%f  0.0000000  0.000000000  0.00000000000  0.000000000000000
%i    0    0    0    0      0      0      0      0         0
%i    0    0    0    0      0      0      0      0         0
/* INFORMATION & ANALYSIS CENTER (IAC)            FINAL DATA
/* S/V CLOCKS ARE ALIGNED TO GPS & GLONASS TIME RESPECTIVELY
/* USING THE BROADCAST EPHEMERIS                            
/* PCV:IGS14_1992 OL/AL:FES2004  NONE     YN ORB:CoN CLK:CoN
*  2018 03 31  7 45  0.00000000
PC01 -32313.696306  27058.843177   1087.635399    551.712715
PC02   4435.515124  41913.521788   -990.388260    639.474233
PC03 -14865.054273  39418.092088    658.778940   -223.498837
PC04 -39613.047640  14493.852532    471.048387      7.449654
PC05  21815.414694  36036.482054  -1330.032378   -199.236916
PC06  -6565.076823  31860.017623 -26386.719098    572.473529
PC07 -17072.372469  22795.374901  31099.774629    912.816557
PC08 -22605.394079  35588.529278  -3139.572952    259.542993
PC09   4758.560566  39207.995076 -14176.328905   -264.779424
PC10  -3044.577673  25410.946056  33600.914898   -122.648120
PC11 -15956.694663   5552.586840  22282.983540   -449.171583
PC12 -10949.980829 -16040.951623  20063.669062    403.308774
PC13 -11095.354658  36933.871258 -17285.210962   -268.942715
PC14 -22822.066669  -4439.296844 -15416.531965    344.817112
PE01  28535.578313   4035.077258   6747.760933   -310.631024
PE02 -28546.455024  -4029.393027  -6740.883202      9.152721
PE03 -21056.571620 -11931.635538 -17032.814747    -15.688337
PE04  14831.555437  -8598.486179  24136.407166     -4.986293
PE05 -14963.756619 -25541.542085     75.906685    293.703075
PE07    138.322624  24167.205207 -17084.902143     58.589227
PE08 -14632.424834   8644.280955 -24229.600187   6613.671459
PE09   -395.907634 -24077.628967  17215.205040   6833.526126
PE11   9965.155607 -27126.959509   6467.877207   1839.102581
PE12  19659.270247 -18299.768220 -12459.070055   3832.132801
PE14   4492.159985 -28771.970664  -6739.188321   6606.873585
PE18   6715.721895  25616.485417  -7521.813659   6317.798444
PE19  20993.898966  13660.672902  15772.786377     20.865506
PE24   7650.423839 -15719.977485 -23897.029242   6784.424505
PE26   5154.307252  20143.895738 -21057.056248   6104.210040
PE30 -25673.659632   8229.313108  12219.121032   5958.948401
PG01  -8243.224473  19419.047778 -16090.380367    -37.560949
PG02  21818.554475 -14305.935473  -3607.858863    158.581708
PG03    560.082693  16326.276389 -20972.661881     40.498737
PG04 -24851.757076  -8033.038800   5368.889508     48.570121
PG05  19074.974469  -5623.485191  17605.929004    -10.896967
PG06  21653.880694  -2952.950234 -15073.939115    410.833420
PG07   7939.026372  13162.084697  21854.117716    214.816616
PG08  -5513.111010  23104.202632  11785.652524    -96.178422
PG09   8607.217418  23710.837219   8262.457847    509.261087
PG10 -24398.647857 -10703.508248   -256.458686    175.114259
PG11  -6505.306243  24547.715894  -8577.413250   -737.541886
PG12   2086.614175 -15229.013268 -21870.783341    342.314468
PG13  12302.234575 -15599.037715  17517.031937    -95.337947
PG14 -15070.461520   -130.145588 -21587.834792    -95.702064
PG15   4149.511635 -23442.385051  11157.470359   -355.953356
PG16 -19245.606046   3015.908719  18098.372278     28.939611
PG17  13874.488225   9938.277988 -20005.006628   -111.104459
PG18 -14838.166982  20074.266524  -9241.270262     -9.210899
PG19  14892.054166   1827.923605 -22191.971806   -447.098166
PG20  -5398.310276 -17112.187678  19484.266429    504.583062
PG21 -11374.513016 -11332.132469  21967.828712   -413.171078
PG22  -7936.313551  13877.481037 -20962.628294   -341.609877
PG23    291.838551  26024.281790  -3708.106509   -218.286248
PG24  10629.800896 -20434.484962 -13087.516810    -47.951065
PG25 -12339.608358 -17532.330296 -16008.921358   -562.080969
PG26 -24579.685781  -3056.726191   9760.545105   -199.050671
PG27 -12554.866298  11423.528554  20290.205527    370.115303
PG28  21938.003504  14691.720673   3249.373191    701.960035
PG29  -4664.218189 -25586.918428   5424.215513    473.833386
PG30  16075.498588   6892.463715  20031.186543     89.575494
PG31 -22598.094787   3719.144336 -13761.802717    131.750585
PG32 -14903.728006 -10164.084970 -19490.427022   -524.709363
PJ03 -26294.577419  24962.511820  26598.691650    -16.310730
PR01 -18094.417202 -17354.113688  -4654.140614     24.147183
PR02 -15058.687009  -2893.879505 -20360.760456    302.449498
PR03  -3134.157751  12495.277147 -21968.741376    128.155433
PR04  10983.457126  20541.396713 -10362.494936    255.350751
PR05  18440.475658  16440.550375   6363.449582   -274.481074
PR06  14768.221542   1679.362568  20714.256542    129.679624
PR07   2792.989605 -12850.258779  21898.832480    -33.938532
PR08 -10474.582731 -20503.069786  11035.572338     22.747461
PR09  25079.103933  -4723.137729  -1041.427662     38.056012
PR10  15815.989896 -10601.352487 -17041.563838     21.570602
PR11  -3152.548068 -10600.208094 -22976.141473    -25.301242
PR13 -24892.755860   5364.409574   1460.873966     -8.957744
PR14 -15905.364498  10783.524087  16776.444308     25.920915
PR15  -1138.978238  10937.547843  23023.575442     -8.105002
PR16  19354.685473   4083.686031  16007.425017     89.105450
PR17 -11162.203971  22087.631230   6251.786448    120.943568
PR18  -3145.106572  22893.811741 -10704.959640    190.166549
PR19   6477.815008  10972.938643 -22090.504845    -48.756002
PR20  13104.526859  -8583.002233 -20138.777975   -332.622454
PR21  11004.546721 -22217.193391  -5957.237279     22.903167
PR22   2174.035354 -22249.260592  12420.807941    -30.959937
PR23  -8413.349919  -7350.191599  22929.789610    144.900867
PR24 -13049.359657   9510.730551  19719.178734   -164.374153
PR26  12901.809292  -8309.867814 -20354.472626      9.129267
EOF
